{
    "links": {
        "self": "http://www.neowsapp.com/rest/v1/neo/3826678?api_key=iIulBulltgU6a56xZRHN4H3l9WmuAYTsLGpBGhQ2"
    },
    "id": "3826678",
    "neo_reference_id": "3826678",
    "name": "(2018 PJ10)",
    "designation": "2018 PJ10",
    "nasa_jpl_url": "http://ssd.jpl.nasa.gov/sbdb.cgi?sstr=3826678",
    "absolute_magnitude_h": 21.2,
    "estimated_diameter": {
        "kilometers": {
            "estimated_diameter_min": 0.1529519353,
            "estimated_diameter_max": 0.3420109247
        },
        "meters": {
            "estimated_diameter_min": 152.9519353442,
            "estimated_diameter_max": 342.0109247198
        },
        "miles": {
            "estimated_diameter_min": 0.095039897,
            "estimated_diameter_max": 0.2125156703
        },
        "feet": {
            "estimated_diameter_min": 501.8108275547,
            "estimated_diameter_max": 1122.0831222578
        }
    },
    "is_potentially_hazardous_asteroid": false,
    "close_approach_data": [
        {
            "close_approach_date": "2018-08-16",
            "close_approach_date_full": "2018-Aug-16 02:47",
            "epoch_date_close_approach": 1534387620000,
            "relative_velocity": {
                "kilometers_per_second": "35.0256980353",
                "kilometers_per_hour": "126092.5129269785",
                "miles_per_hour": "78348.9839350995"
            },
            "miss_distance": {
                "astronomical": "0.1012029441",
                "lunar": "39.3679452549",
                "kilometers": "15139744.875089067",
                "miles": "9407401.2383884446"
            },
            "orbiting_body": "Earth"
        }
    ],
    "orbital_data": {
        "orbit_id": "11",
        "orbit_determination_date": "2018-10-26 06:53:50",
        "first_observation_date": "2018-08-05",
        "last_observation_date": "2018-09-14",
        "data_arc_in_days": 40,
        "observations_used": 68,
        "orbit_uncertainty": "7",
        "minimum_orbit_intersection": ".0914793",
        "jupiter_tisserand_invariant": "2.443",
        "epoch_osculation": "2459000.5",
        "eccentricity": ".5918762654740349",
        "semi_major_axis": "2.689959379194358",
        "inclination": "63.9738773492831",
        "ascending_node_longitude": "324.4719351356303",
        "orbital_period": "1611.450648613105",
        "perihelion_distance": "1.097836267559948",
        "perihelion_argument": "9.560840882865937",
        "aphelion_distance": "4.282082490828767",
        "perihelion_time": "2458354.155869601986",
        "mean_anomaly": "144.3940508780362",
        "mean_motion": ".2234011946377843",
        "equinox": "J2000",
        "orbit_class": {
            "orbit_class_type": "AMO",
            "orbit_class_description": "Near-Earth asteroid orbits similar to that of 1221 Amor",
            "orbit_class_range": "1.017 AU < q (perihelion) < 1.3 AU"
        }
    },
    "is_sentry_object": false
}